[{"OBJECT_NAME":"STARLINK-34764","OBJECT_ID":"2025-167W","EPOCH":"2026-03-09T06:07:12.575424","MEAN_MOTION":15.30188955,"ECCENTRICITY":0.00010693,"INCLINATION":53.1607,"RA_OF_ASC_NODE":28.6505,"ARG_OF_PERICENTER":83.1773,"MEAN_ANOMALY":276.9349,"EPHEMERIS_TYPE":0,"CLASSIFICATION_TYPE":"U","NORAD_CAT_ID":65098,"ELEMENT_SET_NO":999,"REV_AT_EPOCH":3341,"BSTAR":0.00072527932,"MEAN_MOTION_DOT":0.00021175,"MEAN_MOTION_DDOT":0},{"OBJECT_NAME":"CERISE","OBJECT_ID":"1995-033B","EPOCH":"2026-03-09T23:11:27.589056","MEAN_MOTION":15.32047731,"ECCENTRICITY":0.00057118,"INCLINATION":98.325,"RA_OF_ASC_NODE":273.5192,"ARG_OF_PERICENTER":211.8754,"MEAN_ANOMALY":148.214,"EPHEMERIS_TYPE":0,"CLASSIFICATION_TYPE":"U","NORAD_CAT_ID":23606,"ELEMENT_SET_NO":999,"REV_AT_EPOCH":66468,"BSTAR":0.00062940675,"MEAN_MOTION_DOT":0.00019422,"MEAN_MOTION_DDOT":0}]
